{"type": "FeatureCollection", "features": [{"type": "Feature", "properties": {"name": "300ft Radius", "radius_ft": 300}, "geometry": {"type": "Polygon", "coordinates": [[[-122.16824640925515, 37.801328352645285], [-122.1682519730199, 37.801400092749304], [-122.16826539570748, 37.801471175096175], [-122.16828657518505, 37.80154105870373], [-122.1683153502843, 37.801609211711465], [-122.1683515020276, 37.801675115428424], [-122.168394755294, 37.80173826828098], [-122.16844478091242, 37.8017981896303], [-122.16850119816664, 37.80185442343049], [-122.1685635776924, 37.80190654169964], [-122.16863144474499, 37.80195414777735], [-122.16870428281243, 37.801996879343726], [-122.16878153754628, 37.802034411177175], [-122.16886262098103, 37.80206645762982], [-122.16894691600895, 37.80209277480167], [-122.16903378107729, 37.802113162397085], [-122.16912255507118, 37.80212746524925], [-122.16921256234596, 37.802135574501335], [-122.16930311786953, 37.80213742843504], [-122.16939353243691, 37.802133012940374], [-122.16948311791593, 37.80212236162297], [-122.16957119248512, 37.80210555554842], [-122.1696570858235, 37.80208272262518], [-122.16974014421261, 37.802054036631006], [-122.1698197355124, 37.80201971589011], [-122.16989525397258, 37.80198002161157], [-122.16996612484313, 37.80193525590113], [-122.17003180874883, 37.801885759461506], [-122.17009180579429, 37.80183190899947], [-122.1701456593686, 37.801774114358444], [-122.17019295962022, 37.80171281539907], [-122.17023334657607, 37.80164847865142], [-122.17026651288084, 37.80158159376416], [-122.17029220613564, 37.801512669777715], [-122.17031023081849, 37.80144223125014], [-122.17032044977168, 37.80137081426465], [-122.17032278524515, 37.801298962349634], [-122.17031721948734, 37.80122722234199], [-122.17030379487973, 37.80115614022541], [-122.17028261361355, 37.80108625697511], [-122.1702538369114, 37.80101810444074], [-122.17021768379962, 37.80095220129886], [-122.17017442944076, 37.80088904910562], [-122.1701244030391, 37.80082912847983], [-122.17006798533464, 37.80077289544539], [-122.17000560570531, 37.80072077796094], [-122.16993773889897, 37.80067317266307], [-122.16986490142017, 37.80063044184792], [-122.16978764759939, 37.80059291071432], [-122.16970656537445, 37.80056086488884], [-122.16962227181628, 37.8005345482524], [-122.16953540843302, 37.80051416108445], [-122.16944663628828, 37.80049985853876], [-122.16935663097063, 37.800491749462836], [-122.16926607745258, 37.80048989556963], [-122.16917566487827, 37.80049431096796], [-122.16908608131926, 37.80050496205506], [-122.16899800853868, 37.800521767772324], [-122.1689121168032, 37.8005446002222], [-122.16882905978255, 37.800573285641335], [-122.16874946957523, 37.800607605722924], [-122.16867395189831, 37.8006472992779], [-122.16860308147801, 37.80069206422262], [-122.16853739767588, 37.80074155987753], [-122.16847740038415, 37.80079540955975], [-122.16842354622122, 37.800853203449506], [-122.16837624505652, 37.800914501709066], [-122.16833585689086, 37.800978837829526], [-122.16830268911632, 37.801045722181364], [-122.16827699417645, 37.80111464574036], [-122.16825896764445, 37.80118508396147], [-122.16824874673414, 37.80125650077078], [-122.16824640925515, 37.801328352645285]]]}}]}